STARLINK-5643           
1 55431U 23014AS  26068.45910010  .00000470  00000+0  47179-4 0  9992
2 55431  69.9991  85.2019 0003073 268.7314  91.3493 14.98333479171528
UM5-RIBAT               
1 60554U 24149CQ  26068.79561721  .00004725  00000+0  37993-3 0  9991
2 60554  97.6776 147.9138 0003272  87.0399 273.1199 15.00468196 85282
