[{"OBJECT_NAME":"STARLINK-5643","OBJECT_ID":"2023-014AS","EPOCH":"2026-03-09T11:01:06.248640","MEAN_MOTION":14.98333479,"ECCENTRICITY":0.00030733,"INCLINATION":69.9991,"RA_OF_ASC_NODE":85.2019,"ARG_OF_PERICENTER":268.7314,"MEAN_ANOMALY":91.3493,"EPHEMERIS_TYPE":0,"CLASSIFICATION_TYPE":"U","NORAD_CAT_ID":55431,"ELEMENT_SET_NO":999,"REV_AT_EPOCH":17152,"BSTAR":4.7178621e-5,"MEAN_MOTION_DOT":4.7e-6,"MEAN_MOTION_DDOT":0},{"OBJECT_NAME":"UM5-RIBAT","OBJECT_ID":"2024-149CQ","EPOCH":"2026-03-09T19:05:41.327808","MEAN_MOTION":15.00468196,"ECCENTRICITY":0.00032721,"INCLINATION":97.6776,"RA_OF_ASC_NODE":147.9138,"ARG_OF_PERICENTER":87.0399,"MEAN_ANOMALY":273.1199,"EPHEMERIS_TYPE":0,"CLASSIFICATION_TYPE":"U","NORAD_CAT_ID":60554,"ELEMENT_SET_NO":999,"REV_AT_EPOCH":8528,"BSTAR":0.00037992942,"MEAN_MOTION_DOT":4.725e-5,"MEAN_MOTION_DDOT":0}]
